{"type": "FeatureCollection", "features": [ {"type": "Feature", "properties": {"norad_id": 29878, "name": "FENGYUN 1C DEB", "group": "fengyun-1c-debris", "lat": 45.1974216302164, "lon": -2.82379896049937, "alt_km": 508.26220979493974, "timestamp": "2025-12-24T16:52:41.803914+00:00", "meta": {"OBJECT_NAME": "FENGYUN 1C DEB", "OBJECT_ID": "1999-025FY", "EPOCH": "2025-12-23T22:49:14.090592", "MEAN_MOTION": 15.12299902, "ECCENTRICITY": 0.0024249, "INCLINATION": 96.9474, "RA_OF_ASC_NODE": 169.4386, "ARG_OF_PERICENTER": 128.7722, "MEAN_ANOMALY": 231.5682, "EPHEMERIS_TYPE": 0, "CLASSIFICATION_TYPE": "U", "NORAD_CAT_ID": 29878, "ELEMENT_SET_NO": 999, "REV_AT_EPOCH": 98817, "BSTAR": 0.0068614, "MEAN_MOTION_DOT": 0.00121431, "MEAN_MOTION_DDOT": 0}, "tle": {"line1": "1 29878U 99025FY  25357.95085753  .00121431  00000+0  68614-2 0  9991", "line2": "2 29878  96.9474 169.4386 0024249 128.7722 231.5682 15.12299902988172"}}, "geometry": {"type": "Point", "coordinates": [-2.82379896049937, 45.1974216302164]}}, {"type": "Feature", "properties": {"norad_id": 29880, "name": "FENGYUN 1C DEB", "group": "fengyun-1c-debris", "lat": 5.1480831270225895, "lon": -84.83576919487736, "alt_km": 836.3316522740597, "timestamp": "2025-12-24T16:52:41.803924+00:00", "meta": {"OBJECT_NAME": "FENGYUN 1C DEB", "OBJECT_ID": "1999-025GA", "EPOCH": "2025-12-24T01:25:21.937152", "MEAN_MOTION": 13.93950855, "ECCENTRICITY": 0.02323667, "INCLINATION": 98.1957, "RA_OF_ASC_NODE": 275.3362, "ARG_OF_PERICENTER": 69.8744, "MEAN_ANOMALY": 307.9574, "EPHEMERIS_TYPE": 0, "CLASSIFICATION_TYPE": "U", "NORAD_CAT_ID": 29880, "ELEMENT_SET_NO": 999, "REV_AT_EPOCH": 95720, "BSTAR": 0.0012713497, "MEAN_MOTION_DOT": 2.066e-05, "MEAN_MOTION_DDOT": 0}, "tle": {"line1": "1 29880U 99025GA  25358.05928168  .00002066  00000+0  12713-2 0  9993", "line2": "2 29880  98.1957 275.3362 0232366  69.8744 307.9574 13.93950855957202"}}, "geometry": {"type": "Point", "coordinates": [-84.83576919487736, 5.1480831270225895]}}, {"type": "Feature", "properties": {"norad_id": 29881, "name": "FENGYUN 1C DEB", "group": "fengyun-1c-debris", "lat": 66.6941278558626, "lon": -51.28633908311204, "alt_km": 836.4465398647399, "timestamp": "2025-12-24T16:52:41.803935+00:00", "meta": {"OBJECT_NAME": "FENGYUN 1C DEB", "OBJECT_ID": "1999-025GB", "EPOCH": "2025-12-23T21:13:49.275840", "MEAN_MOTION": 13.59663992, "ECCENTRICITY": 0.029328, "INCLINATION": 98.7232, "RA_OF_ASC_NODE": 328.8618, "ARG_OF_PERICENTER": 42.7708, "MEAN_ANOMALY": 338.9824, "EPHEMERIS_TYPE": 0, "CLASSIFICATION_TYPE": "U", "NORAD_CAT_ID": 29881, "ELEMENT_SET_NO": 999, "REV_AT_EPOCH": 93386, "BSTAR": 0.0025867, "MEAN_MOTION_DOT": 2.512e-05, "MEAN_MOTION_DDOT": 0}, "tle": {"line1": "1 29881U 99025GB  25357.88459810  .00002512  00000+0  25867-2 0  9997", "line2": "2 29881  98.7232 328.8618 0293280  42.7708 338.9824 13.59663992933868"}}, "geometry": {"type": "Point", "coordinates": [-51.28633908311204, 66.6941278558626]}}, {"type": "Feature", "properties": {"norad_id": 29884, "name": "FENGYUN 1C DEB", "group": "fengyun-1c-debris", "lat": -76.58132042449144, "lon": 168.37974260321263, "alt_km": 793.9177244836146, "timestamp": "2025-12-24T16:52:41.803945+00:00", "meta": {"OBJECT_NAME": "FENGYUN 1C DEB", "OBJECT_ID": "1999-025GE", "EPOCH": "2025-12-24T02:26:44.791584", "MEAN_MOTION": 14.40339697, "ECCENTRICITY": 0.00443779, "INCLINATION": 99.6022, "RA_OF_ASC_NODE": 32.9054, "ARG_OF_PERICENTER": 104.6566, "MEAN_ANOMALY": 279.2995, "EPHEMERIS_TYPE": 0, "CLASSIFICATION_TYPE": "U", "NORAD_CAT_ID": 29884, "ELEMENT_SET_NO": 999, "REV_AT_EPOCH": 98713, "BSTAR": 0.00058136326, "MEAN_MOTION_DOT": 1.812e-05, "MEAN_MOTION_DDOT": 0}, "tle": {"line1": "1 29884U 99025GE  25358.10190731  .00001812  00000+0  58136-3 0  9998", "line2": "2 29884  99.6022  32.9054 0044377 104.6566 279.2995 14.40339697987134"}}, "geometry": {"type": "Point", "coordinates": [168.37974260321263, -76.58132042449144]}}, {"type": "Feature", "properties": {"norad_id": 29885, "name": "FENGYUN 1C DEB", "group": "fengyun-1c-debris", "lat": 45.78840123269556, "lon": -75.7333623871619, "alt_km": 832.2913818851384, "timestamp": "2025-12-24T16:52:41.803956+00:00", "meta": {"OBJECT_NAME": "FENGYUN 1C DEB", "OBJECT_ID": "1999-025GF", "EPOCH": "2025-12-23T15:44:32.280288", "MEAN_MOTION": 14.13586822, "ECCENTRICITY": 0.01189533, "INCLINATION": 98.3568, "RA_OF_ASC_NODE": 291.9778, "ARG_OF_PERICENTER": 132.9589, "MEAN_ANOMALY": 348.1258, "EPHEMERIS_TYPE": 0, "CLASSIFICATION_TYPE": "U", "NORAD_CAT_ID": 29885, "ELEMENT_SET_NO": 999, "REV_AT_EPOCH": 97611, "BSTAR": 0.00012589403, "MEAN_MOTION_DOT": 2.15e-06, "MEAN_MOTION_DDOT": 0}, "tle": {"line1": "1 29885U 99025GF  25357.65592917  .00000215  00000+0  12589-3 0  9998", "line2": "2 29885  98.3568 291.9778 0118953 132.9589 348.1258 14.13586822976115"}}, "geometry": {"type": "Point", "coordinates": [-75.7333623871619, 45.78840123269556]}}, {"type": "Feature", "properties": {"norad_id": 29887, "name": "FENGYUN 1C DEB", "group": "fengyun-1c-debris", "lat": -31.422754513662213, "lon": 85.80285336114498, "alt_km": 580.8262219160852, "timestamp": "2025-12-24T16:52:41.803967+00:00", "meta": {"OBJECT_NAME": "FENGYUN 1C DEB", "OBJECT_ID": "1999-025GH", "EPOCH": "2025-12-24T03:54:21.359808", "MEAN_MOTION": 14.33758026, "ECCENTRICITY": 0.02863174, "INCLINATION": 98.7168, "RA_OF_ASC_NODE": 79.8792, "ARG_OF_PERICENTER": 325.3682, "MEAN_ANOMALY": 94.3656, "EPHEMERIS_TYPE": 0, "CLASSIFICATION_TYPE": "U", "NORAD_CAT_ID": 29887, "ELEMENT_SET_NO": 999, "REV_AT_EPOCH": 98138, "BSTAR": 0.00058547341, "MEAN_MOTION_DOT": 2.519e-05, "MEAN_MOTION_DDOT": 0}, "tle": {"line1": "1 29887U 99025GH  25358.16274722  .00002519  00000+0  58547-3 0  9991", "line2": "2 29887  98.7168  79.8792 0286317 325.3682  94.3656 14.33758026981384"}}, "geometry": {"type": "Point", "coordinates": [85.80285336114498, -31.422754513662213]}}, {"type": "Feature", "properties": {"norad_id": 29888, "name": "FENGYUN 1C DEB", "group": "fengyun-1c-debris", "lat": 8.711650281567973, "lon": 13.309678271215644, "alt_km": 1025.301659512037, "timestamp": "2025-12-24T16:52:41.803977+00:00", "meta": {"OBJECT_NAME": "FENGYUN 1C DEB", "OBJECT_ID": "1999-025GJ", "EPOCH": "2025-12-23T19:46:44.590080", "MEAN_MOTION": 14.19880041, "ECCENTRICITY": 0.02746017, "INCLINATION": 99.1913, "RA_OF_ASC_NODE": 190.9743, "ARG_OF_PERICENTER": 353.8738, "MEAN_ANOMALY": 5.9103, "EPHEMERIS_TYPE": 0, "CLASSIFICATION_TYPE": "U", "NORAD_CAT_ID": 29888, "ELEMENT_SET_NO": 999, "REV_AT_EPOCH": 97661, "BSTAR": 0.00034719434, "MEAN_MOTION_DOT": 1.02e-05, "MEAN_MOTION_DDOT": 0}, "tle": {"line1": "1 29888U 99025GJ  25357.82412720  .00001020  00000+0  34719-3 0  9997", "line2": "2 29888  99.1913 190.9743 0274601 353.8738   5.9103 14.19880041976612"}}, "geometry": {"type": "Point", "coordinates": [13.309678271215644, 8.711650281567973]}}, {"type": "Feature", "properties": {"norad_id": 29889, "name": "FENGYUN 1C DEB", "group": "fengyun-1c-debris", "lat": -19.75414350037048, "lon": 120.24742979152755, "alt_km": 751.8524796337388, "timestamp": "2025-12-24T16:52:41.803988+00:00", "meta": {"OBJECT_NAME": "FENGYUN 1C DEB", "OBJECT_ID": "1999-025GK", "EPOCH": "2025-12-24T07:01:42.830976", "MEAN_MOTION": 14.13524557, "ECCENTRICITY": 0.01540007, "INCLINATION": 99.4774, "RA_OF_ASC_NODE": 116.3736, "ARG_OF_PERICENTER": 6.988, "MEAN_ANOMALY": 46.5668, "EPHEMERIS_TYPE": 0, "CLASSIFICATION_TYPE": "U", "NORAD_CAT_ID": 29889, "ELEMENT_SET_NO": 999, "REV_AT_EPOCH": 97482, "BSTAR": 0.00026647995, "MEAN_MOTION_DOT": 5.12e-06, "MEAN_MOTION_DDOT": 0}, "tle": {"line1": "1 29889U 99025GK  25358.29285684  .00000512  00000+0  26648-3 0  9994", "line2": "2 29889  99.4774 116.3736 0154000   6.9880  46.5668 14.13524557974828"}}, "geometry": {"type": "Point", "coordinates": [120.24742979152755, -19.75414350037048]}}, {"type": "Feature", "properties": {"norad_id": 29890, "name": "FENGYUN 1C DEB", "group": "fengyun-1c-debris", "lat": -71.96808416488435, "lon": -89.72046936832419, "alt_km": 830.7757855756408, "timestamp": "2025-12-24T16:52:41.803998+00:00", "meta": {"OBJECT_NAME": "FENGYUN 1C DEB", "OBJECT_ID": "1999-025GL", "EPOCH": "2025-12-23T21:07:27.063840", "MEAN_MOTION": 14.23076963, "ECCENTRICITY": 0.0014424, "INCLINATION": 99.4685, "RA_OF_ASC_NODE": 120.2353, "ARG_OF_PERICENTER": 42.6359, "MEAN_ANOMALY": 317.5933, "EPHEMERIS_TYPE": 0, "CLASSIFICATION_TYPE": "U", "NORAD_CAT_ID": 29890, "ELEMENT_SET_NO": 999, "REV_AT_EPOCH": 97609, "BSTAR": 0.00079862, "MEAN_MOTION_DOT": 1.753e-05, "MEAN_MOTION_DDOT": 0}, "tle": {"line1": "1 29890U 99025GL  25357.88017435  .00001753  00000+0  79862-3 0  9991", "line2": "2 29890  99.4685 120.2353 0014424  42.6359 317.5933 14.23076963976094"}}, "geometry": {"type": "Point", "coordinates": [-89.72046936832419, -71.96808416488435]}}, {"type": "Feature", "properties": {"norad_id": 29891, "name": "FENGYUN 1C DEB", "group": "fengyun-1c-debris", "lat": -80.98722471531616, "lon": 104.71553720168376, "alt_km": 867.4792846645778, "timestamp": "2025-12-24T16:52:41.804010+00:00", "meta": {"OBJECT_NAME": "FENGYUN 1C DEB", "OBJECT_ID": "1999-025GM", "EPOCH": "2025-12-24T00:28:04.907136", "MEAN_MOTION": 14.00013724, "ECCENTRICITY": 0.00610199, "INCLINATION": 98.7273, "RA_OF_ASC_NODE": 359.6273, "ARG_OF_PERICENTER": 228.628, "MEAN_ANOMALY": 194.3885, "EPHEMERIS_TYPE": 0, "CLASSIFICATION_TYPE": "U", "NORAD_CAT_ID": 29891, "ELEMENT_SET_NO": 999, "REV_AT_EPOCH": 96646, "BSTAR": 0.00053255234, "MEAN_MOTION_DOT": 7.54e-06, "MEAN_MOTION_DDOT": 0}, "tle": {"line1": "1 29891U 99025GM  25358.01950124  .00000754  00000+0  53255-3 0  9997", "line2": "2 29891  98.7273 359.6273 0061019 228.6280 194.3885 14.00013724966468"}}, "geometry": {"type": "Point", "coordinates": [104.71553720168376, -80.98722471531616]}}]}